{
  "norad_id": 67686,
  "name": "UITMSAT-2",
  "history": [
    {
      "epoch": "2026-03-28T21:12:19.793088",
      "apogee_km": 408.56361850098347,
      "perigee_km": 396.2753515942604,
      "latitude_deg": 43.212484376592826,
      "longitude_deg": -46.57800767989829,
      "semi_major_axis_km": 6780.556485047621,
      "eccentricity": 0.00090614,
      "inclination_deg": 51.6324,
      "raan_deg": 336.0822,
      "arg_perigee_deg": 224.2603,
      "mean_anomaly_deg": 135.7664,
      "mean_motion_rev_day": 15.54908203
    },
    {
      "epoch": "2026-03-29T01:49:58.347264",
      "apogee_km": 408.51093679401765,
      "perigee_km": 396.1704673762224,
      "latitude_deg": -44.74375778900465,
      "longitude_deg": -28.068503039889038,
      "semi_major_axis_km": 6780.47770208512,
      "eccentricity": 0.00091,
      "inclination_deg": 51.6323,
      "raan_deg": 335.1195,
      "arg_perigee_deg": 224.8409,
      "mean_anomaly_deg": 135.1847,
      "mean_motion_rev_day": 15.54935303
    }
  ]
}